OBJECT_NAME,OBJECT_ID,EPOCH,MEAN_MOTION,ECCENTRICITY,INCLINATION,RA_OF_ASC_NODE,ARG_OF_PERICENTER,MEAN_ANOMALY,EPHEMERIS_TYPE,CLASSIFICATION_TYPE,NORAD_CAT_ID,ELEMENT_SET_NO,REV_AT_EPOCH,BSTAR,MEAN_MOTION_DOT,MEAN_MOTION_DDOT
IRIDIUM 154,2018-061F,2026-06-26T22:18:22.443552,14.34218031,.00021922,86.3955,52.7332,89.3292,270.8155,0,U,43574,999,41480,.28358624E-4,.99E-6,0
IRIDIUM 163,2018-061G,2026-06-26T21:50:58.492608,14.34217881,.00022154,86.3952,52.6560,83.5767,276.5681,0,U,43575,999,41477,.31824507E-4,.109E-5,0
IRIDIUM 156,2018-061H,2026-06-26T21:14:26.914272,14.34218801,.00020071,86.3954,52.6739,85.6264,274.5161,0,U,43576,999,41476,.73135836E-4,.225E-5,0
IRIDIUM 164,2018-061J,2026-06-26T22:27:30.464064,14.34218156,.00022382,86.3954,52.6932,90.2525,269.8927,0,U,43577,999,41481,.26990703E-4,.95E-6,0
IRIDIUM 159,2018-061K,2026-06-26T21:41:50.504064,14.34217554,.0002214,86.3951,52.6431,83.9437,276.2011,0,U,43578,999,41477,.2117496E-5,.26E-6,0
IRIDIUM 180,2019-002A,2026-06-26T21:41:06.961920,14.34217252,.00021201,86.3971,349.5349,89.2714,270.8725,0,U,43922,999,39038,-.10374596E-4,-.9E-7,0
IRIDIUM 176,2019-002B,2026-06-26T22:42:39.030912,14.72226363,.00024123,86.6094,349.4590,88.5224,271.6270,0,U,43923,999,40068,.11373706E-3,.741E-5,0
IRIDIUM 168,2019-002C,2026-06-26T23:12:26.529408,14.34216560,.00022333,86.3976,349.5857,90.4632,269.6819,0,U,43924,999,39037,.17854345E-4,.7E-6,0
IRIDIUM 173,2019-002D,2026-06-26T22:54:10.937664,14.34217892,.00021597,86.3972,349.4796,88.5604,271.5839,0,U,43925,999,39035,.10832613E-4,.5E-6,0
IRIDIUM 169,2019-002E,2026-06-26T22:05:30.643584,14.38607572,.00016684,86.4220,21.1232,82.9486,277.1902,0,U,43926,999,39162,.76809656E-4,.255E-5,0
IRIDIUM 172,2019-002F,2026-06-26T22:45:02.833344,14.34216813,.00021372,86.3970,349.4903,89.5817,270.5624,0,U,43927,999,39036,-.5345772E-5,.5E-7,0
IRIDIUM 175,2019-002G,2026-06-26T20:11:26.922048,14.43617741,.0003726,86.4517,286.4853,153.7300,206.4091,0,U,43928,999,40037,.82430317E-4,.299E-5,0
IRIDIUM 171,2019-002H,2026-06-26T22:17:38.898816,14.34217548,.00019769,86.3980,349.8055,93.8948,266.2474,0,U,43929,999,39035,-.488133E-5,.6E-7,0
IRIDIUM 170,2019-002J,2026-06-26T22:51:32.719392,14.72226883,.00024923,86.6093,349.4588,85.9770,274.1732,0,U,43930,999,40069,.11180223E-3,.729E-5,0
IRIDIUM 167,2019-002K,2026-06-26T22:08:30.902496,14.34217356,.00018849,86.3971,349.5234,97.2074,262.9336,0,U,43931,999,39035,-.12848485E-4,-.16E-6,0
IRIDIUM 181,2023-068S,2026-06-26T14:30:36.100800,14.43310795,.0002418,86.4491,52.8536,87.7025,272.4453,0,U,56726,999,16379,.70837E-4,.259E-5,0
IRIDIUM 177,2023-068T,2026-06-26T22:07:50.144160,14.80039543,.00021563,86.1958,324.1675,88.0021,272.1446,0,U,56727,999,16780,.1337552E-3,.1038E-4,0
IRIDIUM 174,2023-068U,2026-06-26T22:33:46.427616,14.72234569,.00023954,86.6101,349.6122,80.5604,279.5883,0,U,56728,999,16745,.12146102E-3,.79E-5,0
IRIDIUM 178,2023-068V,2026-06-26T20:14:39.290784,14.80227874,.00025516,86.6535,21.3237,87.2284,272.9230,0,U,56729,999,16779,.98470291E-4,.774E-5,0
IRIDIUM 179,2023-068W,2026-06-26T20:07:01.736256,14.80054812,.00010029,86.6618,30.3324,54.8791,305.2524,0,U,56730,999,16779,.998717E-4,.782E-5,0
