IRIDIUM 154             
1 43574U 18061F   26177.92942643  .00000099  00000+0  28359-4 0  9999
2 43574  86.3955  52.7332 0002192  89.3292 270.8155 14.34218031414802
IRIDIUM 163             
1 43575U 18061G   26177.91039922  .00000109  00000+0  31825-4 0  9990
2 43575  86.3952  52.6560 0002215  83.5767 276.5681 14.34217881414776
IRIDIUM 156             
1 43576U 18061H   26177.88503373  .00000225  00000+0  73136-4 0  9993
2 43576  86.3954  52.6739 0002007  85.6264 274.5161 14.34218801414764
IRIDIUM 164             
1 43577U 18061J   26177.93576926  .00000095  00000+0  26991-4 0  9996
2 43577  86.3954  52.6932 0002238  90.2525 269.8927 14.34218156414814
IRIDIUM 159             
1 43578U 18061K   26177.90405676  .00000026  00000+0  21175-5 0  9991
2 43578  86.3951  52.6431 0002214  83.9437 276.2011 14.34217554414773
IRIDIUM 180             
1 43922U 19002A   26177.90355280 -.00000009  00000+0 -10375-4 0  9997
2 43922  86.3971 349.5349 0002120  89.2714 270.8725 14.34217252390384
IRIDIUM 176             
1 43923U 19002B   26177.94628508  .00000741  00000+0  11374-3 0  9998
2 43923  86.6094 349.4590 0002412  88.5224 271.6270 14.72226363400687
IRIDIUM 168             
1 43924U 19002C   26177.96697372  .00000070  00000+0  17854-4 0  9991
2 43924  86.3976 349.5857 0002233  90.4632 269.6819 14.34216560390373
IRIDIUM 173             
1 43925U 19002D   26177.95429326  .00000050  00000+0  10833-4 0  9991
2 43925  86.3972 349.4796 0002159  88.5604 271.5839 14.34217892390356
IRIDIUM 169             
1 43926U 19002E   26177.92049356  .00000255  00000+0  76810-4 0  9994
2 43926  86.4220  21.1232 0001668  82.9486 277.1902 14.38607572391629
IRIDIUM 172             
1 43927U 19002F   26177.94794946  .00000005  00000+0 -53458-5 0  9997
2 43927  86.3970 349.4903 0002137  89.5817 270.5624 14.34216813390363
IRIDIUM 175             
1 43928U 19002G   26177.84128382  .00000299  00000+0  82430-4 0  9997
2 43928  86.4517 286.4853 0003726 153.7300 206.4091 14.43617741400376
IRIDIUM 171             
1 43929U 19002H   26177.92892244  .00000006  00000+0 -48813-5 0  9997
2 43929  86.3980 349.8055 0001976  93.8948 266.2474 14.34217548390351
IRIDIUM 170             
1 43930U 19002J   26177.95246203  .00000729  00000+0  11180-3 0  9996
2 43930  86.6093 349.4588 0002492  85.9770 274.1732 14.72226883400695
IRIDIUM 167             
1 43931U 19002K   26177.92257989 -.00000016  00000+0 -12848-4 0  9991
2 43931  86.3971 349.5234 0001884  97.2074 262.9336 14.34217356390353
IRIDIUM 181             
1 56726U 23068S   26177.60458450  .00000259  00000+0  70837-4 0  9994
2 56726  86.4491  52.8536 0002418  87.7025 272.4453 14.43310795163793
IRIDIUM 177             
1 56727U 23068T   26177.92210815  .00001038  00000+0  13376-3 0  9991
2 56727  86.1958 324.1675 0002156  88.0021 272.1446 14.80039543167802
IRIDIUM 174             
1 56728U 23068U   26177.94012069  .00000790  00000+0  12146-3 0  9993
2 56728  86.6101 349.6122 0002395  80.5604 279.5883 14.72234569167459
IRIDIUM 178             
1 56729U 23068V   26177.84351031  .00000774  00000+0  98470-4 0  9995
2 56729  86.6535  21.3237 0002551  87.2284 272.9230 14.80227874167794
IRIDIUM 179             
1 56730U 23068W   26177.83821454  .00000782  00000+0  99872-4 0  9993
2 56730  86.6618  30.3324 0001002  54.8791 305.2524 14.80054812167794
